{
  "type": "FeatureCollection",
  "features": [
    {
      "type": "Feature",
      "properties": {
        "norad_id": 31038,
        "name": "FENGYUN 1C DEB",
        "group": "fengyun-1c-debris",
        "lat": -54.65553415907028,
        "lon": 76.86542741943836,
        "alt_km": 713.1958179132835,
        "timestamp": "2025-12-06T07:31:40.517088+00:00",
        "meta_object_name": "FENGYUN 1C DEB",
        "meta_object_id": "1999-025BEG",
        "meta_epoch": "2025-12-02T04:07:32.187648",
        "meta_mean_motion": 14.4574661,
        "meta_eccentricity": 0.00840344,
        "meta_inclination": 99.0146,
        "meta_ra_of_asc_node": 59.5324,
        "meta_arg_of_pericenter": 260.1378,
        "meta_mean_anomaly": 99.0316,
        "meta_ephemeris_type": 0,
        "meta_classification_type": "U",
        "meta_norad_cat_id": 31038,
        "meta_element_set_no": 999,
        "meta_rev_at_epoch": 98082,
        "meta_bstar": 0.00073536601,
        "meta_mean_motion_dot": 2.669e-05,
        "meta_mean_motion_ddot": 0,
        "tle_line1": "1 31038U 99025BEG 25336.17190032  .00002669  00000+0  73537-3 0  9992",
        "tle_line2": "2 31038  99.0146  59.5324 0084034 260.1378  99.0316 14.45746610980823"
      },
      "geometry": {
        "type": "Point",
        "coordinates": [
          76.86542741943836,
          -54.65553415907028
        ]
      }
    },
    {
      "type": "Feature",
      "properties": {
        "norad_id": 31040,
        "name": "FENGYUN 1C DEB",
        "group": "fengyun-1c-debris",
        "lat": -69.29231853809154,
        "lon": 126.55572186092037,
        "alt_km": 805.387743864112,
        "timestamp": "2025-12-06T07:31:40.517098+00:00",
        "meta_object_name": "FENGYUN 1C DEB",
        "meta_object_id": "1999-025BEJ",
        "meta_epoch": "2025-12-05T05:14:52.180800",
        "meta_mean_motion": 14.17656759,
        "meta_eccentricity": 0.00619164,
        "meta_inclination": 98.6577,
        "meta_ra_of_asc_node": 329.2578,
        "meta_arg_of_pericenter": 215.8943,
        "meta_mean_anomaly": 209.4638,
        "meta_ephemeris_type": 0,
        "meta_classification_type": "U",
        "meta_norad_cat_id": 31040,
        "meta_element_set_no": 999,
        "meta_rev_at_epoch": 96600,
        "meta_bstar": 0.00052144844,
        "meta_mean_motion_dot": 1.038e-05,
        "meta_mean_motion_ddot": 0,
        "tle_line1": "1 31040U 99025BEJ 25339.21865950  .00001038  00000+0  52145-3 0  9992",
        "tle_line2": "2 31040  98.6577 329.2578 0061916 215.8943 209.4638 14.17656759966007"
      },
      "geometry": {
        "type": "Point",
        "coordinates": [
          126.55572186092037,
          -69.29231853809154
        ]
      }
    },
    {
      "type": "Feature",
      "properties": {
        "norad_id": 31041,
        "name": "FENGYUN 1C DEB",
        "group": "fengyun-1c-debris",
        "lat": 53.15704257139176,
        "lon": -158.77667614471756,
        "alt_km": 880.065476443021,
        "timestamp": "2025-12-06T07:31:40.517108+00:00",
        "meta_object_name": "FENGYUN 1C DEB",
        "meta_object_id": "1999-025BEK",
        "meta_epoch": "2025-12-03T21:20:58.441056",
        "meta_mean_motion": 14.17711562,
        "meta_eccentricity": 0.008667,
        "meta_inclination": 99.2055,
        "meta_ra_of_asc_node": 6.2126,
        "meta_arg_of_pericenter": 345.7803,
        "meta_mean_anomaly": 14.0932,
        "meta_ephemeris_type": 0,
        "meta_classification_type": "U",
        "meta_norad_cat_id": 31041,
        "meta_element_set_no": 999,
        "meta_rev_at_epoch": 95364,
        "meta_bstar": 0.0041162,
        "meta_mean_motion_dot": 8.662e-05,
        "meta_mean_motion_ddot": 0,
        "tle_line1": "1 31041U 99025BEK 25337.88956529  .00008662  00000+0  41162-2 0  9993",
        "tle_line2": "2 31041  99.2055   6.2126 0086670 345.7803  14.0932 14.17711562953646"
      },
      "geometry": {
        "type": "Point",
        "coordinates": [
          -158.77667614471756,
          53.15704257139176
        ]
      }
    },
    {
      "type": "Feature",
      "properties": {
        "norad_id": 31043,
        "name": "FENGYUN 1C DEB",
        "group": "fengyun-1c-debris",
        "lat": -9.630465021951938,
        "lon": -0.19438372957537875,
        "alt_km": 843.2535164316896,
        "timestamp": "2025-12-06T07:31:40.517118+00:00",
        "meta_object_name": "FENGYUN 1C DEB",
        "meta_object_id": "1999-025BEM",
        "meta_epoch": "2025-12-05T07:46:57.554400",
        "meta_mean_motion": 14.08411028,
        "meta_eccentricity": 0.0041672,
        "meta_inclination": 98.7646,
        "meta_ra_of_asc_node": 357.3444,
        "meta_arg_of_pericenter": 25.2372,
        "meta_mean_anomaly": 351.7101,
        "meta_ephemeris_type": 0,
        "meta_classification_type": "U",
        "meta_norad_cat_id": 31043,
        "meta_element_set_no": 999,
        "meta_rev_at_epoch": 95883,
        "meta_bstar": 0.00075987475,
        "meta_mean_motion_dot": 1.27e-05,
        "meta_mean_motion_ddot": 0,
        "tle_line1": "1 31043U 99025BEM 25339.32427725  .00001270  00000+0  75987-3 0  9998",
        "tle_line2": "2 31043  98.7646 357.3444 0041672  25.2372 351.7101 14.08411028958834"
      },
      "geometry": {
        "type": "Point",
        "coordinates": [
          -0.19438372957537875,
          -9.630465021951938
        ]
      }
    },
    {
      "type": "Feature",
      "properties": {
        "norad_id": 31046,
        "name": "FENGYUN 1C DEB",
        "group": "fengyun-1c-debris",
        "lat": -25.543578308131615,
        "lon": 103.76721258397752,
        "alt_km": 717.1482984581007,
        "timestamp": "2025-12-06T07:31:40.517128+00:00",
        "meta_object_name": "FENGYUN 1C DEB",
        "meta_object_id": "1999-025BEQ",
        "meta_epoch": "2025-12-05T07:16:49.990368",
        "meta_mean_motion": 14.63269744,
        "meta_eccentricity": 0.00481044,
        "meta_inclination": 98.9689,
        "meta_ra_of_asc_node": 98.3407,
        "meta_arg_of_pericenter": 126.7997,
        "meta_mean_anomaly": 288.5728,
        "meta_ephemeris_type": 0,
        "meta_classification_type": "U",
        "meta_norad_cat_id": 31046,
        "meta_element_set_no": 999,
        "meta_rev_at_epoch": 96534,
        "meta_bstar": 0.0087363172,
        "meta_mean_motion_dot": 0.0004605,
        "meta_mean_motion_ddot": 0,
        "tle_line1": "1 31046U 99025BEQ 25339.30335637  .00046050  00000+0  87363-2 0  9994",
        "tle_line2": "2 31046  98.9689  98.3407 0048104 126.7997 288.5728 14.63269744965347"
      },
      "geometry": {
        "type": "Point",
        "coordinates": [
          103.76721258397752,
          -25.543578308131615
        ]
      }
    },
    {
      "type": "Feature",
      "properties": {
        "norad_id": 31047,
        "name": "FENGYUN 1C DEB",
        "group": "fengyun-1c-debris",
        "lat": -16.800489698048494,
        "lon": 155.26966165960815,
        "alt_km": 832.8816620265407,
        "timestamp": "2025-12-06T07:31:40.517139+00:00",
        "meta_object_name": "FENGYUN 1C DEB",
        "meta_object_id": "1999-025BER",
        "meta_epoch": "2025-12-04T19:30:53.154144",
        "meta_mean_motion": 14.13823721,
        "meta_eccentricity": 0.00252394,
        "meta_inclination": 98.7003,
        "meta_ra_of_asc_node": 336.4594,
        "meta_arg_of_pericenter": 200.6734,
        "meta_mean_anomaly": 283.0416,
        "meta_ephemeris_type": 0,
        "meta_classification_type": "U",
        "meta_norad_cat_id": 31047,
        "meta_element_set_no": 999,
        "meta_rev_at_epoch": 96247,
        "meta_bstar": 0.00069014675,
        "meta_mean_motion_dot": 1.268e-05,
        "meta_mean_motion_ddot": 0,
        "tle_line1": "1 31047U 99025BER 25338.81311521  .00001268  00000+0  69015-3 0  9993",
        "tle_line2": "2 31047  98.7003 336.4594 0025239 200.6734 283.0416 14.13823721962475"
      },
      "geometry": {
        "type": "Point",
        "coordinates": [
          155.26966165960815,
          -16.800489698048494
        ]
      }
    },
    {
      "type": "Feature",
      "properties": {
        "norad_id": 31051,
        "name": "FENGYUN 1C DEB",
        "group": "fengyun-1c-debris",
        "lat": -8.412308006556682,
        "lon": -170.24655513604395,
        "alt_km": 855.7889403793943,
        "timestamp": "2025-12-06T07:31:40.517149+00:00",
        "meta_object_name": "FENGYUN 1C DEB",
        "meta_object_id": "1999-025BEV",
        "meta_epoch": "2025-11-29T08:36:57.509280",
        "meta_mean_motion": 14.03023318,
        "meta_eccentricity": 0.00528722,
        "meta_inclination": 98.8207,
        "meta_ra_of_asc_node": 4.3303,
        "meta_arg_of_pericenter": 172.6282,
        "meta_mean_anomaly": 187.5674,
        "meta_ephemeris_type": 0,
        "meta_classification_type": "U",
        "meta_norad_cat_id": 31051,
        "meta_element_set_no": 999,
        "meta_rev_at_epoch": 63631,
        "meta_bstar": 0.00023865273,
        "meta_mean_motion_dot": 3.33e-06,
        "meta_mean_motion_ddot": 0,
        "tle_line1": "1 31051U 99025BEV 25333.35899895  .00000333  00000+0  23865-3 0  9992",
        "tle_line2": "2 31051  98.8207   4.3303 0052872 172.6282 187.5674 14.03023318636313"
      },
      "geometry": {
        "type": "Point",
        "coordinates": [
          -170.24655513604395,
          -8.412308006556682
        ]
      }
    }
  ]
}